ISS (ZARYA)             
1 25544U 98067A   26168.51200966  .00010215  00000+0  19142-3 0  9990
2 25544  51.6331 298.4851 0004697 196.4176 163.6661 15.49281356571802
OSCAR 7 (AO-7)          
1 07530U 74089B   26167.98236219 -.00000042  00000+0  29785-4 0  9996
2 07530 101.9900 181.2269 0012576 130.5028 286.3286 12.53698125360495
PHASE 3B (AO-10)        
1 14129U 83058B   26168.36952042  .00000190  00000+0  00000+0 0  9993
2 14129  25.9123 219.5345 6010777 115.7182 316.6307  2.05868747295495
UOSAT 2 (UO-11)         
1 14781U 84021B   26168.48985683  .00000893  00000+0  96474-4 0  9993
2 14781  97.8058 134.0610 0007687 171.2729 188.8624 14.90783771257178
LUSAT (LO-19)           
1 20442U 90005G   26168.04242580  .00000086  00000+0  47437-4 0  9996
2 20442  98.8850 189.8440 0011114 201.5317 158.5401 14.34123170902374
EYESAT A (AO-27)        
1 22825U 93061C   26168.13972331  .00000083  00000+0  48352-4 0  9996
2 22825  98.6881 235.5533 0009538  99.8912 260.3348 14.30942270706999
ITAMSAT (IO-26)         
1 22826U 93061D   26168.11914999  .00000077  00000+0  45962-4 0  9998
2 22826  98.6828 235.4502 0010073  85.1350 275.0983 14.31369167707309
RADIO ROSTO (RS15)      
1 23439U 94085A   26168.47073733 -.00000052  00000+0 -28183-3 0  9997
2 23439  64.8179 302.7576 0155956   3.8240 356.3838 11.27583456295932
JAS-2 (FO-29)           
1 24278U 96046B   26168.38505289  .00000000  00000+0  32651-4 0  9991
2 24278  98.5239  17.2301 0350906  95.9202 268.2041 13.53274404473195
TECHSAT 1B (GO-32)      
1 25397U 98043D   26168.48584789  .00000035  00000+0  35404-4 0  9993
2 25397  99.0067 161.2520 0001080 161.9506 198.1711 14.24428440451374
PCSAT (NO-44)           
1 26931U 01043C   26168.50854177  .00000074  00000+0  58672-4 0  9991
2 26931  67.0505 243.4407 0006079 264.6457  95.3952 14.31956189290490
SAUDISAT 1C (SO-50)     
1 27607U 02058C   26168.49245841  .00000788  00000+0  11042-3 0  9990
2 27607  64.5510 128.0407 0075265 262.4185  96.8368 14.83047547264500
CUTE-1 (CO-55)          
1 27844U 03031E   26168.24792029  .00000228  00000+0  11738-3 0  9994
2 27844  98.6736 176.8060 0009542 177.7909 182.3314 14.24335742191686
CUBESAT XI-IV (CO-57)   
1 27848U 03031J   26167.95527529  .00000197  00000+0  10575-3 0  9999
2 27848  98.6766 176.2299 0009009 197.6805 162.4061 14.23620738191347
MOZHAETS 4 (RS22)       
1 27939U 03042A   26168.55763221  .00000531  00000+0  90121-4 0  9998
2 27939  98.3462 352.9265 0009937 268.4720 184.4032 14.73467010215602
CUBESAT XI-V            
1 28895U 05043F   26167.38340975  .00001200  00000+0  19649-3 0  9999
2 28895  98.2985 322.9884 0013585 203.3717 156.6874 14.72629782101632
CUTE-1.7+APD II (CO-65) 
1 32785U 08021C   26168.51393807  .00003791  00000+0  24082-3 0  9993
2 32785  97.8273 149.9392 0009718  37.9511 322.2400 15.09453045985248
SEEDS II (CO-66)        
1 32791U 08021J   26167.93971588  .00015903  00000+0  50504-3 0  9999
2 32791  97.7513 165.8255 0001090   4.6274 355.4977 15.32745063987258
YUBILEINY (RS30)        
1 32953U 08025A   26168.50085237  .00000085  00000+0  53786-3 0  9994
2 32953  82.5036 355.2450 0018856 313.2269  46.7236 12.43179774819737
KKS-1 (KISEKI)          
1 33499U 09002H   26168.45899683  .00001041  00000+0  13454-3 0  9999
2 33499  98.1189  90.9055 0006512 294.8329  65.2207 14.83124616936236
SWISSCUBE               
1 35932U 09051B   26168.30549632  .00000774  00000+0  16253-3 0  9999
2 35932  98.4035  76.1959 0005970 202.6029 157.4910 14.62481763889174
BEESAT-1                
1 35933U 09051C   26168.31499258  .00000655  00000+0  14128-3 0  9996
2 35933  98.3964  75.8408 0004229 216.3512 143.7401 14.61720657889209
ITUPSAT1                
1 35935U 09051E   26167.68937774  .00000621  00000+0  13815-3 0  9992
2 35935  98.4049  74.3979 0006243 235.8160 124.2448 14.60440072888669
XIWANG-1 (HOPE-1)       
1 36122U 09072B   26168.47188027 -.00000076  00000+0 -81743-4 0  9993
2 36122 100.4028 122.2999 0006873 230.9718 129.0783 13.16438304793045
O/OREOS (USA 219)       
1 37224U 10062C   26168.12918378  .00001739  00000+0  16980-3 0  9995
2 37224  71.9713  80.4709 0012546  63.1875 297.0577 14.93744241116637
JUGNU                   
1 37839U 11058B   26168.10338875  .00000397  00000+0  67695-4 0  9998
2 37839  19.9617 308.9384 0018637  75.2680  81.6214 14.13776752759010
SRMSAT                  
1 37841U 11058D   26168.08915448  .00000356  00000+0  49079-4 0  9996
2 37841  19.9723  60.0600 0011791 202.5356 269.2197 14.11575544757800
STRAND-1                
1 39090U 13009E   26168.40411720  .00000200  00000+0  81523-4 0  9990
2 39090  98.3921 348.6331 0007741 224.5373 135.5192 14.37163347697094
ZACUBE-1 (TSHEPISOSAT)  
1 39417U 13066B   26168.47394243  .00002365  00000+0  18618-3 0  9991
2 39417  97.8080 130.8124 0040842 246.6808 113.0116 15.01189934680771
GOMX-1                  
1 39430U 13066Q   26168.52643281  .00001508  00000+0  23101-3 0  9992
2 39430  97.6476   8.9676 0130181  76.4531 285.1140 14.69461350669962
